{"fetched_at":"2026-07-13T18:16:31.793Z","source":"https://celestrak.org/NORAD/elements/gp.php?GROUP=oneweb&FORMAT=JSON","constellation":"oneweb","records":[{"OBJECT_NAME":"ONEWEB-0588","OBJECT_ID":"2023-004P","EPOCH":"2026-07-12T21:44:59.310528","CLASSIFICATION_TYPE":"U","MEAN_MOTION":13.1868672,"ECCENTRICITY":0.00020501,"INCLINATION":87.9195,"RA_OF_ASC_NODE":330.3512,"ARG_OF_PERICENTER":93.0725,"MEAN_ANOMALY":267.0642,"EPHEMERIS_TYPE":0,"NORAD_CAT_ID":55153,"ELEMENT_SET_NO":999,"REV_AT_EPOCH":17308,"BSTAR":-0.00030367895,"MEAN_MOTION_DOT":-0.00000107,"MEAN_MOTION_DDOT":0},{"OBJECT_NAME":"ONEWEB-0598","OBJECT_ID":"2023-004Q","EPOCH":"2026-07-12T22:45:57.139200","CLASSIFICATION_TYPE":"U","MEAN_MOTION":13.11418049,"ECCENTRICITY":0.00024721,"INCLINATION":87.8883,"RA_OF_ASC_NODE":15.938,"ARG_OF_PERICENTER":100.3141,"MEAN_ANOMALY":259.8265,"EPHEMERIS_TYPE":0,"NORAD_CAT_ID":55154,"ELEMENT_SET_NO":999,"REV_AT_EPOCH":16927,"BSTAR":0.0011602518,"MEAN_MOTION_DOT":0.00000424,"MEAN_MOTION_DDOT":0},{"OBJECT_NAME":"ONEWEB-0599","OBJECT_ID":"2023-004R","EPOCH":"2026-07-12T22:03:33.234624","CLASSIFICATION_TYPE":"U","MEAN_MOTION":13.17650433,"ECCENTRICITY":0.00018485,"INCLINATION":87.9141,"RA_OF_ASC_NODE":0.7443,"ARG_OF_PERICENTER":99.6348,"MEAN_ANOMALY":260.4993,"EPHEMERIS_TYPE":0,"NORAD_CAT_ID":55155,"ELEMENT_SET_NO":999,"REV_AT_EPOCH":17087,"BSTAR":0.000052548974,"MEAN_MOTION_DOT":3.3e-7,"MEAN_MOTION_DDOT":0},{"OBJECT_NAME":"ONEWEB-0614","OBJECT_ID":"2023-004S","EPOCH":"2026-07-12T22:38:37.223232","CLASSIFICATION_TYPE":"U","MEAN_MOTION":13.11418475,"ECCENTRICITY":0.00018007,"INCLINATION":87.8879,"RA_OF_ASC_NODE":15.9476,"ARG_OF_PERICENTER":82.1208,"MEAN_ANOMALY":278.0124,"EPHEMERIS_TYPE":0,"NORAD_CAT_ID":55156,"ELEMENT_SET_NO":999,"REV_AT_EPOCH":16921,"BSTAR":0.00075815349,"MEAN_MOTION_DOT":0.00000281,"MEAN_MOTION_DDOT":0},{"OBJECT_NAME":"ONEWEB-0616","OBJECT_ID":"2023-004T","EPOCH":"2026-07-12T21:14:57.269184","CLASSIFICATION_TYPE":"U","MEAN_MOTION":13.17650706,"ECCENTRICITY":0.00016605,"INCLINATION":87.9142,"RA_OF_ASC_NODE":0.7547,"ARG_OF_PERICENTER":121.905,"MEAN_ANOMALY":238.2243,"EPHEMERIS_TYPE":0,"NORAD_CAT_ID":55157,"ELEMENT_SET_NO":999,"REV_AT_EPOCH":17108,"BSTAR":0.000074772756,"MEAN_MOTION_DOT":4.2e-7,"MEAN_MOTION_DDOT":0},{"OBJECT_NAME":"ONEWEB-0617","OBJECT_ID":"2023-004U","EPOCH":"2026-07-12T22:21:30.765312","CLASSIFICATION_TYPE":"U","MEAN_MOTION":13.11419618,"ECCENTRICITY":0.00019391,"INCLINATION":87.8887,"RA_OF_ASC_NODE":15.9427,"ARG_OF_PERICENTER":77.5343,"MEAN_ANOMALY":282.6002,"EPHEMERIS_TYPE":0,"NORAD_CAT_ID":55158,"ELEMENT_SET_NO":999,"REV_AT_EPOCH":16923,"BSTAR":-0.00060369787,"MEAN_MOTION_DOT":-0.00000201,"MEAN_MOTION_DDOT":0},{"OBJECT_NAME":"ONEWEB-0618","OBJECT_ID":"2023-004V","EPOCH":"2026-07-12T21:57:17.899200","CLASSIFICATION_TYPE":"U","MEAN_MOTION":15.13361758,"ECCENTRICITY":0.00118184,"INCLINATION":86.9104,"RA_OF_ASC_NODE":167.188,"ARG_OF_PERICENTER":183.5251,"MEAN_ANOMALY":176.5908,"EPHEMERIS_TYPE":0,"NORAD_CAT_ID":55159,"ELEMENT_SET_NO":999,"REV_AT_EPOCH":18615,"BSTAR":0.00012470489,"MEAN_MOTION_DOT":0.0000226,"MEAN_MOTION_DDOT":0},{"OBJECT_NAME":"ONEWEB-0619","OBJECT_ID":"2023-004W","EPOCH":"2026-07-12T22:01:07.457952","CLASSIFICATION_TYPE":"U","MEAN_MOTION":13.17650765,"ECCENTRICITY":0.00014361,"INCLINATION":87.9151,"RA_OF_ASC_NODE":0.7316,"ARG_OF_PERICENTER":86.8749,"MEAN_ANOMALY":273.2547,"EPHEMERIS_TYPE":0,"NORAD_CAT_ID":55160,"ELEMENT_SET_NO":999,"REV_AT_EPOCH":17098,"BSTAR":0.00010739139,"MEAN_MOTION_DOT":5.5e-7,"MEAN_MOTION_DDOT":0},{"OBJECT_NAME":"ONEWEB-0620","OBJECT_ID":"2023-004X","EPOCH":"2026-07-12T22:14:11.279616","CLASSIFICATION_TYPE":"U","MEAN_MOTION":13.11418476,"ECCENTRICITY":0.00021058,"INCLINATION":87.8874,"RA_OF_ASC_NODE":15.9497,"ARG_OF_PERICENTER":89.6085,"MEAN_ANOMALY":270.5285,"EPHEMERIS_TYPE":0,"NORAD_CAT_ID":55161,"ELEMENT_SET_NO":999,"REV_AT_EPOCH":16920,"BSTAR":-0.0010514718,"MEAN_MOTION_DOT":-0.0000036,"MEAN_MOTION_DDOT":0},{"OBJECT_NAME":"ONEWEB-0621","OBJECT_ID":"2023-004Y","EPOCH":"2026-07-12T22:53:16.694880","CLASSIFICATION_TYPE":"U","MEAN_MOTION":13.11417011,"ECCENTRICITY":0.00017815,"INCLINATION":87.8892,"RA_OF_ASC_NODE":15.9366,"ARG_OF_PERICENTER":83.1348,"MEAN_ANOMALY":276.9983,"EPHEMERIS_TYPE":0,"NORAD_CAT_ID":55162,"ELEMENT_SET_NO":999,"REV_AT_EPOCH":16918,"BSTAR":0.001435753,"MEAN_MOTION_DOT":0.00000522,"MEAN_MOTION_DDOT":0},{"OBJECT_NAME":"ONEWEB-0622","OBJECT_ID":"2023-004Z","EPOCH":"2026-07-12T23:00:36.317952","CLASSIFICATION_TYPE":"U","MEAN_MOTION":13.11416118,"ECCENTRICITY":0.00022512,"INCLINATION":87.8888,"RA_OF_ASC_NODE":15.9382,"ARG_OF_PERICENTER":73.6591,"MEAN_ANOMALY":286.4784,"EPHEMERIS_TYPE":0,"NORAD_CAT_ID":55163,"ELEMENT_SET_NO":999,"REV_AT_EPOCH":16917,"BSTAR":0.001524322,"MEAN_MOTION_DOT":0.00000553,"MEAN_MOTION_DDOT":0},{"OBJECT_NAME":"ONEWEB-0623","OBJECT_ID":"2023-004AA","EPOCH":"2026-07-12T21:53:50.167680","CLASSIFICATION_TYPE":"U","MEAN_MOTION":13.17648283,"ECCENTRICITY":0.0001722,"INCLINATION":87.9135,"RA_OF_ASC_NODE":0.7598,"ARG_OF_PERICENTER":64.9953,"MEAN_ANOMALY":295.1358,"EPHEMERIS_TYPE":0,"NORAD_CAT_ID":55164,"ELEMENT_SET_NO":999,"REV_AT_EPOCH":17097,"BSTAR":0.00028185096,"MEAN_MOTION_DOT":0.00000122,"MEAN_MOTION_DDOT":0},{"OBJECT_NAME":"ONEWEB-0624","OBJECT_ID":"2023-004AB","EPOCH":"2026-07-12T21:03:20.662272","CLASSIFICATION_TYPE":"U","MEAN_MOTION":13.1292906,"ECCENTRICITY":0.00016781,"INCLINATION":87.895,"RA_OF_ASC_NODE":345.4727,"ARG_OF_PERICENTER":83.9262,"MEAN_ANOMALY":276.2058,"EPHEMERIS_TYPE":0,"NORAD_CAT_ID":55165,"ELEMENT_SET_NO":999,"REV_AT_EPOCH":17144,"BSTAR":0.001106715,"MEAN_MOTION_DOT":0.00000414,"MEAN_MOTION_DDOT":0},{"OBJECT_NAME":"ONEWEB-0625","OBJECT_ID":"2023-004AC","EPOCH":"2026-07-12T21:39:15.194880","CLASSIFICATION_TYPE":"U","MEAN_MOTION":13.17650315,"ECCENTRICITY":0.00016896,"INCLINATION":87.9138,"RA_OF_ASC_NODE":0.7578,"ARG_OF_PERICENTER":93.8337,"MEAN_ANOMALY":266.2988,"EPHEMERIS_TYPE":0,"NORAD_CAT_ID":55166,"ELEMENT_SET_NO":999,"REV_AT_EPOCH":17096,"BSTAR":0.000079612973,"MEAN_MOTION_DOT":4.4e-7,"MEAN_MOTION_DDOT":0},{"OBJECT_NAME":"ONEWEB-0626","OBJECT_ID":"2023-004AD","EPOCH":"2026-07-12T21:24:41.979456","CLASSIFICATION_TYPE":"U","MEAN_MOTION":13.17650536,"ECCENTRICITY":0.00021375,"INCLINATION":87.914,"RA_OF_ASC_NODE":0.7599,"ARG_OF_PERICENTER":99.2252,"MEAN_ANOMALY":260.9121,"EPHEMERIS_TYPE":0,"NORAD_CAT_ID":55167,"ELEMENT_SET_NO":999,"REV_AT_EPOCH":17096,"BSTAR":0.000032582011,"MEAN_MOTION_DOT":2.6e-7,"MEAN_MOTION_DDOT":0},{"OBJECT_NAME":"ONEWEB-0627","OBJECT_ID":"2023-004AE","EPOCH":"2026-07-12T21:07:40.568160","CLASSIFICATION_TYPE":"U","MEAN_MOTION":13.17647913,"ECCENTRICITY":0.00018876,"INCLINATION":87.914,"RA_OF_ASC_NODE":0.7622,"ARG_OF_PERICENTER":80.3955,"MEAN_ANOMALY":279.739,"EPHEMERIS_TYPE":0,"NORAD_CAT_ID":55168,"ELEMENT_SET_NO":999,"REV_AT_EPOCH":17096,"BSTAR":-0.00012035926,"MEAN_MOTION_DOT":-3.4e-7,"MEAN_MOTION_DDOT":0}]}
